{"type": "FeatureCollection", "features": [ {"type": "Feature", "properties": {"norad_id": 43262, "name": "GAOFEN-1 04", "group": "resource", "lat": 35.70851447870969, "lon": -126.13967071850392, "alt_km": 638.0694342288925, "timestamp": "2025-12-16T03:53:26.716529+00:00", "meta": {"OBJECT_NAME": "GAOFEN-1 04", "OBJECT_ID": "2018-031D", "EPOCH": "2025-12-15T07:43:25.807008", "MEAN_MOTION": 14.76457232, "ECCENTRICITY": 9.526e-05, "INCLINATION": 98.0808, "RA_OF_ASC_NODE": 47.1583, "ARG_OF_PERICENTER": 59.149, "MEAN_ANOMALY": 300.9813, "EPHEMERIS_TYPE": 0, "CLASSIFICATION_TYPE": "U", "NORAD_CAT_ID": 43262, "ELEMENT_SET_NO": 999, "REV_AT_EPOCH": 41555, "BSTAR": 0.00017481842, "MEAN_MOTION_DOT": 1.165e-05, "MEAN_MOTION_DDOT": 0}, "tle": {"line1": "1 43262U 18031D   25349.32182647  .00001165  00000+0  17482-3 0  9993", "line2": "2 43262  98.0808  47.1583 0000952  59.1490 300.9813 14.76457232415559"}}, "geometry": {"type": "Point", "coordinates": [-126.13967071850392, 35.70851447870969]}}, {"type": "Feature", "properties": {"norad_id": 43437, "name": "SENTINEL-3B", "group": "resource", "lat": 57.6937670613433, "lon": 41.407094310241355, "alt_km": 796.1514179632113, "timestamp": "2025-12-16T03:53:26.716540+00:00", "meta": {"OBJECT_NAME": "SENTINEL-3B", "OBJECT_ID": "2018-039A", "EPOCH": "2025-12-15T04:03:09.890208", "MEAN_MOTION": 14.26734832, "ECCENTRICITY": 0.00016341, "INCLINATION": 98.6266, "RA_OF_ASC_NODE": 54.3194, "ARG_OF_PERICENTER": 99.3535, "MEAN_ANOMALY": 260.783, "EPHEMERIS_TYPE": 0, "CLASSIFICATION_TYPE": "U", "NORAD_CAT_ID": 43437, "ELEMENT_SET_NO": 999, "REV_AT_EPOCH": 39788, "BSTAR": 7.3329295e-05, "MEAN_MOTION_DOT": 1.34e-06, "MEAN_MOTION_DDOT": 0}, "tle": {"line1": "1 43437U 18039A   25349.16886447  .00000134  00000+0  73329-4 0  9994", "line2": "2 43437  98.6266  54.3194 0001634  99.3535 260.7830 14.26734832397885"}}, "geometry": {"type": "Point", "coordinates": [41.407094310241355, 57.6937670613433]}}, {"type": "Feature", "properties": {"norad_id": 43461, "name": "GAOFEN-5 01", "group": "resource", "lat": 75.16700457012634, "lon": 167.25715591918538, "alt_km": 685.069848129865, "timestamp": "2025-12-16T03:53:26.716550+00:00", "meta": {"OBJECT_NAME": "GAOFEN-5 01", "OBJECT_ID": "2018-043A", "EPOCH": "2025-12-15T07:41:32.362944", "MEAN_MOTION": 14.60412576, "ECCENTRICITY": 7.784e-05, "INCLINATION": 98.4328, "RA_OF_ASC_NODE": 312.3329, "ARG_OF_PERICENTER": 329.6302, "MEAN_ANOMALY": 30.4852, "EPHEMERIS_TYPE": 0, "CLASSIFICATION_TYPE": "U", "NORAD_CAT_ID": 43461, "ELEMENT_SET_NO": 999, "REV_AT_EPOCH": 40485, "BSTAR": 0.00010795371, "MEAN_MOTION_DOT": 4.74e-06, "MEAN_MOTION_DDOT": 0}, "tle": {"line1": "1 43461U 18043A   25349.32051346  .00000474  00000+0  10795-3 0  9990", "line2": "2 43461  98.4328 312.3329 0000778 329.6302  30.4852 14.60412576404853"}}, "geometry": {"type": "Point", "coordinates": [167.25715591918538, 75.16700457012634]}}, {"type": "Feature", "properties": {"norad_id": 43484, "name": "GAOFEN-6", "group": "resource", "lat": -62.81685311249908, "lon": 69.80080163786351, "alt_km": 651.5673207855016, "timestamp": "2025-12-16T03:53:26.716560+00:00", "meta": {"OBJECT_NAME": "GAOFEN-6", "OBJECT_ID": "2018-048A", "EPOCH": "2025-12-15T08:39:47.260224", "MEAN_MOTION": 14.76574832, "ECCENTRICITY": 0.00131125, "INCLINATION": 97.8031, "RA_OF_ASC_NODE": 53.5396, "ARG_OF_PERICENTER": 56.1221, "MEAN_ANOMALY": 304.1234, "EPHEMERIS_TYPE": 0, "CLASSIFICATION_TYPE": "U", "NORAD_CAT_ID": 43484, "ELEMENT_SET_NO": 999, "REV_AT_EPOCH": 40626, "BSTAR": 0.00021832308, "MEAN_MOTION_DOT": 1.476e-05, "MEAN_MOTION_DDOT": 0}, "tle": {"line1": "1 43484U 18048A   25349.36096366  .00001476  00000+0  21832-3 0  9992", "line2": "2 43484  97.8031  53.5396 0013112  56.1221 304.1234 14.76574832406261"}}, "geometry": {"type": "Point", "coordinates": [69.80080163786351, -62.81685311249908]}}, {"type": "Feature", "properties": {"norad_id": 43585, "name": "GAOFEN-11 01", "group": "resource", "lat": -79.94832903891418, "lon": 98.20949853888177, "alt_km": 423.43986359689006, "timestamp": "2025-12-16T03:53:26.716571+00:00", "meta": {"OBJECT_NAME": "GAOFEN-11 01", "OBJECT_ID": "2018-063A", "EPOCH": "2025-12-15T08:05:48.272928", "MEAN_MOTION": 15.49299058, "ECCENTRICITY": 0.00041594, "INCLINATION": 97.1565, "RA_OF_ASC_NODE": 52.2503, "ARG_OF_PERICENTER": 300.5395, "MEAN_ANOMALY": 59.5446, "EPHEMERIS_TYPE": 0, "CLASSIFICATION_TYPE": "U", "NORAD_CAT_ID": 43585, "ELEMENT_SET_NO": 999, "REV_AT_EPOCH": 41182, "BSTAR": 0.00020436983, "MEAN_MOTION_DOT": 0.00011088, "MEAN_MOTION_DDOT": 0}, "tle": {"line1": "1 43585U 18063A   25349.33736427  .00011088  00000+0  20437-3 0  9997", "line2": "2 43585  97.1565  52.2503 0004159 300.5395  59.5446 15.49299058411822"}}, "geometry": {"type": "Point", "coordinates": [98.20949853888177, -79.94832903891418]}}, {"type": "Feature", "properties": {"norad_id": 43613, "name": "ICESAT-2", "group": "resource", "lat": 65.53290287218607, "lon": 66.07631966690813, "alt_km": 472.85074439604523, "timestamp": "2025-12-16T03:53:26.716581+00:00", "meta": {"OBJECT_NAME": "ICESAT-2", "OBJECT_ID": "2018-070A", "EPOCH": "2025-12-15T06:57:47.924928", "MEAN_MOTION": 15.28306028, "ECCENTRICITY": 0.00026498, "INCLINATION": 92.005, "RA_OF_ASC_NODE": 241.4255, "ARG_OF_PERICENTER": 136.9083, "MEAN_ANOMALY": 223.2375, "EPHEMERIS_TYPE": 0, "CLASSIFICATION_TYPE": "U", "NORAD_CAT_ID": 43613, "ELEMENT_SET_NO": 999, "REV_AT_EPOCH": 40437, "BSTAR": 0.0003027198, "MEAN_MOTION_DOT": 8.344e-05, "MEAN_MOTION_DDOT": 0}, "tle": {"line1": "1 43613U 18070A   25349.29013802  .00008344  00000+0  30272-3 0  9996", "line2": "2 43613  92.0050 241.4255 0002649 136.9083 223.2375 15.28306028404376"}}, "geometry": {"type": "Point", "coordinates": [66.07631966690813, 65.53290287218607]}}, {"type": "Feature", "properties": {"norad_id": 43719, "name": "HYSIS", "group": "resource", "lat": -2.813189899267291, "lon": 53.519465184422295, "alt_km": 636.4304913658343, "timestamp": "2025-12-16T03:53:26.716592+00:00", "meta": {"OBJECT_NAME": "HYSIS", "OBJECT_ID": "2018-096A", "EPOCH": "2025-12-15T08:24:52.717824", "MEAN_MOTION": 14.78657368, "ECCENTRICITY": 0.00012714, "INCLINATION": 98.0098, "RA_OF_ASC_NODE": 52.3155, "ARG_OF_PERICENTER": 55.833, "MEAN_ANOMALY": 304.3001, "EPHEMERIS_TYPE": 0, "CLASSIFICATION_TYPE": "U", "NORAD_CAT_ID": 43719, "ELEMENT_SET_NO": 999, "REV_AT_EPOCH": 38025, "BSTAR": 0.00029853477, "MEAN_MOTION_DOT": 2.136e-05, "MEAN_MOTION_DDOT": 0}, "tle": {"line1": "1 43719U 18096A   25349.35061016  .00002136  00000+0  29853-3 0  9994", "line2": "2 43719  98.0098  52.3155 0001271  55.8330 304.3001 14.78657368380250"}}, "geometry": {"type": "Point", "coordinates": [53.519465184422295, -2.813189899267291]}}, {"type": "Feature", "properties": {"norad_id": 43783, "name": "KAZSTSAT", "group": "resource", "lat": 51.260947717747364, "lon": -145.40489516491914, "alt_km": 568.2109222436675, "timestamp": "2025-12-16T03:53:26.716603+00:00", "meta": {"OBJECT_NAME": "KAZSTSAT", "OBJECT_ID": "2018-099AB", "EPOCH": "2025-12-15T08:06:04.214592", "MEAN_MOTION": 14.99359645, "ECCENTRICITY": 0.00058736, "INCLINATION": 97.4556, "RA_OF_ASC_NODE": 24.4115, "ARG_OF_PERICENTER": 318.825, "MEAN_ANOMALY": 41.253, "EPHEMERIS_TYPE": 0, "CLASSIFICATION_TYPE": "U", "NORAD_CAT_ID": 43783, "ELEMENT_SET_NO": 999, "REV_AT_EPOCH": 38375, "BSTAR": 6.5780009e-05, "MEAN_MOTION_DOT": 7.49e-06, "MEAN_MOTION_DDOT": 0}, "tle": {"line1": "1 43783U 18099AB  25349.33754878  .00000749  00000+0  65780-4 0  9999", "line2": "2 43783  97.4556  24.4115 0005873 318.8250  41.2530 14.99359645383756"}}, "geometry": {"type": "Point", "coordinates": [-145.40489516491914, 51.260947717747364]}}, {"type": "Feature", "properties": {"norad_id": 43831, "name": "SAUDISAT 5A", "group": "resource", "lat": 34.868668320341406, "lon": -124.56267983412123, "alt_km": 484.9717702245771, "timestamp": "2025-12-16T03:53:26.716632+00:00", "meta": {"OBJECT_NAME": "SAUDISAT 5A", "OBJECT_ID": "2018-102A", "EPOCH": "2025-12-15T08:22:15.341952", "MEAN_MOTION": 15.25692662, "ECCENTRICITY": 0.00116732, "INCLINATION": 97.3356, "RA_OF_ASC_NODE": 49.4895, "ARG_OF_PERICENTER": 68.2124, "MEAN_ANOMALY": 292.0356, "EPHEMERIS_TYPE": 0, "CLASSIFICATION_TYPE": "U", "NORAD_CAT_ID": 43831, "ELEMENT_SET_NO": 999, "REV_AT_EPOCH": 38762, "BSTAR": 0.00018518278, "MEAN_MOTION_DOT": 4.654e-05, "MEAN_MOTION_DDOT": 0}, "tle": {"line1": "1 43831U 18102A   25349.34878868  .00004654  00000+0  18518-3 0  9990", "line2": "2 43831  97.3356  49.4895 0011673  68.2124 292.0356 15.25692662387621"}}, "geometry": {"type": "Point", "coordinates": [-124.56267983412123, 34.868668320341406]}}, {"type": "Feature", "properties": {"norad_id": 43833, "name": "SAUDISAT 5B", "group": "resource", "lat": -21.17889195474513, "lon": -129.83271290817888, "alt_km": 498.8894505963335, "timestamp": "2025-12-16T03:53:26.716644+00:00", "meta": {"OBJECT_NAME": "SAUDISAT 5B", "OBJECT_ID": "2018-102C", "EPOCH": "2025-12-15T08:07:41.480256", "MEAN_MOTION": 15.26043678, "ECCENTRICITY": 0.00124008, "INCLINATION": 97.3451, "RA_OF_ASC_NODE": 52.2229, "ARG_OF_PERICENTER": 70.4841, "MEAN_ANOMALY": 289.7735, "EPHEMERIS_TYPE": 0, "CLASSIFICATION_TYPE": "U", "NORAD_CAT_ID": 43833, "ELEMENT_SET_NO": 999, "REV_AT_EPOCH": 38773, "BSTAR": 0.00018793826, "MEAN_MOTION_DOT": 4.776e-05, "MEAN_MOTION_DDOT": 0}, "tle": {"line1": "1 43833U 18102C   25349.33867454  .00004776  00000+0  18794-3 0  9991", "line2": "2 43833  97.3451  52.2229 0012400  70.4841 289.7735 15.26043678387736"}}, "geometry": {"type": "Point", "coordinates": [-129.83271290817888, -21.17889195474513]}}]}